start=new Date('2021-12-03T00:00:00.000Z').valueOf();
sats=[{"OBJECT_ID":"2021-018Q","NORAD_CAT_ID":"47801","OBJECT_NAME":"STARLINK-2382","REF_FRAME":"TEME","MEAN_MOTION":"15.06398467","RA_OF_ASC_NODE":"31.3586","ELEMENT_SET_NO":"999","ARG_OF_PERICENTER":"64.3546","PERIAPSIS":"546.196","TLE_LINE2":"2 47801  53.0570  31.3586 0001476  64.3546 295.7596 15.06398467 41966","RCS_SIZE":"LARGE","MEAN_ELEMENT_THEORY":"SGP4","LAUNCH_DATE":"2021-03-11","FILE":"3230859","CENTER_NAME":"EARTH","TIME_SYSTEM":"UTC","INCLINATION":"53.0570","MEAN_MOTION_DDOT":"0.0000000000000","APOAPSIS":"548.240","EPHEMERIS_TYPE":"0","OBJECT_TYPE":"PAYLOAD","SITE":"AFETR","REV_AT_EPOCH":"4196","SEMIMAJOR_AXIS":"6925.353","MEAN_MOTION_DOT":"0.00000452","EPOCH":"2021-12-02T13:16:47.805312","GP_ID":"190945007","TLE_LINE1":"1 47801U 21018Q   21336.55333108  .00000452  00000-0  49263-4 0  9994","BSTAR":"0.00004926300000","DECAY_DATE":null,"COUNTRY_CODE":"US","PERIOD":"95.592","MEAN_ANOMALY":"295.7596","CLASSIFICATION_TYPE":"U","ECCENTRICITY":"0.00014760"},{"EPHEMERIS_TYPE":"0","APOAPSIS":"549.595","INCLINATION":"53.0494","MEAN_MOTION_DDOT":"0.0000000000000","TIME_SYSTEM":"UTC","CENTER_NAME":"EARTH","FILE":"3230859","MEAN_ELEMENT_THEORY":"SGP4","LAUNCH_DATE":"2021-03-11","RCS_SIZE":"LARGE","TLE_LINE2":"2 47802  53.0494  51.7388 0003435 147.6640 212.4560 15.06399273 41676","PERIAPSIS":"544.837","ARG_OF_PERICENTER":"147.6640","ELEMENT_SET_NO":"999","MEAN_MOTION":"15.06399273","RA_OF_ASC_NODE":"51.7388","REF_FRAME":"TEME","OBJECT_NAME":"STARLINK-2383","NORAD_CAT_ID":"47802","OBJECT_ID":"2021-018R","CLASSIFICATION_TYPE":"U","ECCENTRICITY":"0.00034350","MEAN_ANOMALY":"212.4560","PERIOD":"95.592","COUNTRY_CODE":"US","DECAY_DATE":null,"BSTAR":"0.00010734000000","TLE_LINE1":"1 47802U 21018R   21336.47870977  .00001317  00000-0  10734-3 0  9997","GP_ID":"190943755","SEMIMAJOR_AXIS":"6925.351","MEAN_MOTION_DOT":"0.00001317","EPOCH":"2021-12-02T11:29:20.524128","SITE":"AFETR","REV_AT_EPOCH":"4167","OBJECT_TYPE":"PAYLOAD"},{"EPHEMERIS_TYPE":"0","APOAPSIS":"548.111","CENTER_NAME":"EARTH","FILE":"3230859","INCLINATION":"53.0565","MEAN_MOTION_DDOT":"0.0000000000000","TIME_SYSTEM":"UTC","RCS_SIZE":"LARGE","TLE_LINE2":"2 47803  53.0565  26.4212 0001253  73.1022 287.0105 15.06390180 42025","PERIAPSIS":"546.376","ELEMENT_SET_NO":"999","ARG_OF_PERICENTER":"73.1022","MEAN_ELEMENT_THEORY":"SGP4","LAUNCH_DATE":"2021-03-11","OBJECT_ID":"2021-018S","RA_OF_ASC_NODE":"26.4212","MEAN_MOTION":"15.06390180","REF_FRAME":"TEME","OBJECT_NAME":"STARLINK-2384","NORAD_CAT_ID":"47803","CLASSIFICATION_TYPE":"U","ECCENTRICITY":"0.00012530","PERIOD":"95.593","COUNTRY_CODE":"US","DECAY_DATE":null,"MEAN_ANOMALY":"287.0105","TLE_LINE1":"1 47803U 21018S   21336.54184351  .00000035  00000-0  21256-4 0  9998","GP_ID":"190944005","BSTAR":"0.00002125600000","OBJECT_TYPE":"PAYLOAD","EPOCH":"2021-12-02T13:00:15.279264","SEMIMAJOR_AXIS":"6925.379","MEAN_MOTION_DOT":"0.00000035","REV_AT_EPOCH":"4202","SITE":"AFETR"},{"APOAPSIS":"548.119","EPHEMERIS_TYPE":"0","FILE":"3230964","CENTER_NAME":"EARTH","TIME_SYSTEM":"UTC","MEAN_MOTION_DDOT":"0.0000000000000","INCLINATION":"53.0568","PERIAPSIS":"546.335","ELEMENT_SET_NO":"999","ARG_OF_PERICENTER":"67.8563","RCS_SIZE":"LARGE","TLE_LINE2":"2 47804  53.0568  26.3414 0001288  67.8563 292.2562 15.06395542 41683","LAUNCH_DATE":"2021-03-11","MEAN_ELEMENT_THEORY":"SGP4","OBJECT_ID":"2021-018T","REF_FRAME":"TEME","NORAD_CAT_ID":"47804","OBJECT_NAME":"STARLINK-2385","RA_OF_ASC_NODE":"26.3414","MEAN_MOTION":"15.06395542","CLASSIFICATION_TYPE":"U","ECCENTRICITY":"0.00012880","DECAY_DATE":null,"PERIOD":"95.592","COUNTRY_CODE":"US","MEAN_ANOMALY":"292.2562","TLE_LINE1":"1 47804U 21018T   21336.55658214  .00000467  00000-0  50232-4 0  9999","GP_ID":"190948736","BSTAR":"0.00005023200000","OBJECT_TYPE":"PAYLOAD","EPOCH":"2021-12-02T13:21:28.696896","SEMIMAJOR_AXIS":"6925.362","MEAN_MOTION_DOT":"0.00000467","SITE":"AFETR","REV_AT_EPOCH":"4168"},{"BSTAR":"-0.00006935700000","TLE_LINE1":"1 47805U 21018U   21336.56670017 -.00001314  00000-0 -69357-4 0  9998","GP_ID":"190950842","MEAN_MOTION_DOT":"-0.00001314","SEMIMAJOR_AXIS":"6925.373","EPOCH":"2021-12-02T13:36:02.894688","REV_AT_EPOCH":"4168","SITE":"AFETR","OBJECT_TYPE":"PAYLOAD","CLASSIFICATION_TYPE":"U","ECCENTRICITY":"0.00014620","MEAN_ANOMALY":"294.3220","PERIOD":"95.593","COUNTRY_CODE":"US","DECAY_DATE":null,"LAUNCH_DATE":"2021-03-11","MEAN_ELEMENT_THEORY":"SGP4","RCS_SIZE":"MEDIUM","TLE_LINE2":"2 47805  53.0568  26.2932 0001462  65.7922 294.3220 15.06391867 41688","PERIAPSIS":"546.226","ELEMENT_SET_NO":"999","ARG_OF_PERICENTER":"65.7922","RA_OF_ASC_NODE":"26.2932","MEAN_MOTION":"15.06391867","REF_FRAME":"TEME","NORAD_CAT_ID":"47805","OBJECT_NAME":"STARLINK-2386","OBJECT_ID":"2021-018U","EPHEMERIS_TYPE":"0","APOAPSIS":"548.251","INCLINATION":"53.0568","MEAN_MOTION_DDOT":"0.0000000000000","TIME_SYSTEM":"UTC","CENTER_NAME":"EARTH","FILE":"3231053"},{"ECCENTRICITY":"0.00013140","CLASSIFICATION_TYPE":"U","DECAY_DATE":null,"COUNTRY_CODE":"US","PERIOD":"95.592","MEAN_ANOMALY":"283.9781","GP_ID":"190944256","TLE_LINE1":"1 47806U 21018V   21336.46025585  .00001544  00000-0  12252-3 0  9996","BSTAR":"0.00012252000000","OBJECT_TYPE":"PAYLOAD","REV_AT_EPOCH":"4186","SITE":"AFETR","SEMIMAJOR_AXIS":"6925.341","EPOCH":"2021-12-02T11:02:46.105440","MEAN_MOTION_DOT":"0.00001544","APOAPSIS":"548.116","EPHEMERIS_TYPE":"0","FILE":"3230859","CENTER_NAME":"EARTH","TIME_SYSTEM":"UTC","INCLINATION":"53.0576","MEAN_MOTION_DDOT":"0.0000000000000","ELEMENT_SET_NO":"999","ARG_OF_PERICENTER":"76.1355","PERIAPSIS":"546.296","TLE_LINE2":"2 47806  53.0576  41.7913 0001314  76.1355 283.9781 15.06402493 41865","RCS_SIZE":"LARGE","LAUNCH_DATE":"2021-03-11","MEAN_ELEMENT_THEORY":"SGP4","OBJECT_ID":"2021-018V","OBJECT_NAME":"STARLINK-2387","NORAD_CAT_ID":"47806","REF_FRAME":"TEME","RA_OF_ASC_NODE":"41.7913","MEAN_MOTION":"15.06402493"},{"RCS_SIZE":"LARGE","TLE_LINE2":"2 47807  53.0515  16.5311 0001423  77.3267 282.7881 15.06401486 42159","PERIAPSIS":"546.224","ARG_OF_PERICENTER":"77.3267","ELEMENT_SET_NO":"999","LAUNCH_DATE":"2021-03-11","MEAN_ELEMENT_THEORY":"SGP4","OBJECT_ID":"2021-018W","MEAN_MOTION":"15.06401486","RA_OF_ASC_NODE":"16.5311","REF_FRAME":"TEME","OBJECT_NAME":"STARLINK-2388","NORAD_CAT_ID":"47807","EPHEMERIS_TYPE":"0","APOAPSIS":"548.194","CENTER_NAME":"EARTH","FILE":"3230859","INCLINATION":"53.0515","MEAN_MOTION_DDOT":"0.0000000000000","TIME_SYSTEM":"UTC","TLE_LINE1":"1 47807U 21018W   21336.51694577  .00000845  00000-0  75623-4 0  9991","GP_ID":"190944506","BSTAR":"0.00007562300000","OBJECT_TYPE":"PAYLOAD","MEAN_MOTION_DOT":"0.00000845","SEMIMAJOR_AXIS":"6925.344","EPOCH":"2021-12-02T12:24:24.114528","REV_AT_EPOCH":"4215","SITE":"AFETR","CLASSIFICATION_TYPE":"U","ECCENTRICITY":"0.00014230","PERIOD":"95.592","COUNTRY_CODE":"US","DECAY_DATE":null,"MEAN_ANOMALY":"282.7881"},{"INCLINATION":"53.0571","MEAN_MOTION_DDOT":"0.0000000000000","TIME_SYSTEM":"UTC","CENTER_NAME":"EARTH","FILE":"3230859","EPHEMERIS_TYPE":"0","APOAPSIS":"548.095","RA_OF_ASC_NODE":"41.7046","MEAN_MOTION":"15.06403191","REF_FRAME":"TEME","NORAD_CAT_ID":"47808","OBJECT_NAME":"STARLINK-2389","OBJECT_ID":"2021-018X","MEAN_ELEMENT_THEORY":"SGP4","LAUNCH_DATE":"2021-03-11","RCS_SIZE":"LARGE","TLE_LINE2":"2 47808  53.0571  41.7046 0001287  71.7576 288.3553 15.06403191 41866","PERIAPSIS":"546.312","ELEMENT_SET_NO":"999","ARG_OF_PERICENTER":"71.7576","MEAN_ANOMALY":"288.3553","PERIOD":"95.592","COUNTRY_CODE":"US","DECAY_DATE":null,"ECCENTRICITY":"0.00012870","CLASSIFICATION_TYPE":"U","SEMIMAJOR_AXIS":"6925.339","MEAN_MOTION_DOT":"0.00000933","EPOCH":"2021-12-02T11:30:39.894624","SITE":"AFETR","REV_AT_EPOCH":"4186","OBJECT_TYPE":"PAYLOAD","BSTAR":"0.00008150900000","TLE_LINE1":"1 47808U 21018X   21336.47962841  .00000933  00000-0  81509-4 0  9997","GP_ID":"190945258"},{"APOAPSIS":"548.179","EPHEMERIS_TYPE":"0","TIME_SYSTEM":"UTC","MEAN_MOTION_DDOT":"0.0000000000000","INCLINATION":"53.0570","FILE":"3230859","CENTER_NAME":"EARTH","MEAN_ELEMENT_THEORY":"SGP4","LAUNCH_DATE":"2021-03-11","ARG_OF_PERICENTER":"72.0580","ELEMENT_SET_NO":"999","PERIAPSIS":"546.251","TLE_LINE2":"2 47809  53.0570  46.3659 0001392  72.0580 288.0560 15.06399404 41803","RCS_SIZE":"LARGE","NORAD_CAT_ID":"47809","OBJECT_NAME":"STARLINK-2390","REF_FRAME":"TEME","MEAN_MOTION":"15.06399404","RA_OF_ASC_NODE":"46.3659","OBJECT_ID":"2021-018Y","ECCENTRICITY":"0.00013920","CLASSIFICATION_TYPE":"U","MEAN_ANOMALY":"288.0560","DECAY_DATE":null,"COUNTRY_CODE":"US","PERIOD":"95.592","BSTAR":"0.00003123800000","GP_ID":"190945008","TLE_LINE1":"1 47809U 21018Y   21336.55104587  .00000184  00000-0  31238-4 0  9994","SITE":"AFETR","REV_AT_EPOCH":"4180","SEMIMAJOR_AXIS":"6925.350","MEAN_MOTION_DOT":"0.00000184","EPOCH":"2021-12-02T13:13:30.363168","OBJECT_TYPE":"PAYLOAD"},{"OBJECT_TYPE":"PAYLOAD","SITE":"AFETR","REV_AT_EPOCH":"4165","MEAN_MOTION_DOT":"0.00000808","SEMIMAJOR_AXIS":"6925.359","EPOCH":"2021-12-02T12:13:47.842464","GP_ID":"190943756","TLE_LINE1":"1 47810U 21018Z   21336.50958151  .00000808  00000-0  73168-4 0  9996","BSTAR":"0.00007316800000","DECAY_DATE":null,"COUNTRY_CODE":"US","PERIOD":"95.592","MEAN_ANOMALY":"290.5328","CLASSIFICATION_TYPE":"U","ECCENTRICITY":"0.00013970","OBJECT_ID":"2021-018Z","OBJECT_NAME":"STARLINK-2391","NORAD_CAT_ID":"47810","REF_FRAME":"TEME","RA_OF_ASC_NODE":"56.5692","MEAN_MOTION":"15.06396549","ELEMENT_SET_NO":"999","ARG_OF_PERICENTER":"69.5811","PERIAPSIS":"546.257","TLE_LINE2":"2 47810  53.0558  56.5692 0001397  69.5811 290.5328 15.06396549 41654","RCS_SIZE":"LARGE","MEAN_ELEMENT_THEORY":"SGP4","LAUNCH_DATE":"2021-03-11","FILE":"3230859","CENTER_NAME":"EARTH","TIME_SYSTEM":"UTC","INCLINATION":"53.0558","MEAN_MOTION_DDOT":"0.0000000000000","APOAPSIS":"548.192","EPHEMERIS_TYPE":"0"}];
